{"type": "FeatureCollection", "features": [ {"type": "Feature", "properties": {"norad_id": 66468, "name": "STARLINK-35331", "group": "last-30-days", "lat": -8.864977982800424, "lon": -44.43324292637936, "alt_km": 387.6169559481832, "timestamp": "2025-12-03T08:58:44.777259+00:00", "meta": {"OBJECT_NAME": "STARLINK-35331", "OBJECT_ID": "2025-262N", "EPOCH": "2025-12-03T04:00:01.998720", "MEAN_MOTION": 15.61260007, "ECCENTRICITY": 0.0001518, "INCLINATION": 42.9997, "RA_OF_ASC_NODE": 127.1636, "ARG_OF_PERICENTER": 281.1035, "MEAN_ANOMALY": 184.9349, "EPHEMERIS_TYPE": 0, "CLASSIFICATION_TYPE": "U", "NORAD_CAT_ID": 66468, "ELEMENT_SET_NO": 999, "REV_AT_EPOCH": 410, "BSTAR": -0.027955, "MEAN_MOTION_DOT": -0.02164927, "MEAN_MOTION_DDOT": 0}, "tle": {"line1": "1 66468U 25262N   25337.16668980 -.02164927  00000+0 -27955-1 0  9992", "line2": "2 66468  42.9997 127.1636 0001518 281.1035 184.9349 15.61260007  4104"}}, "geometry": {"type": "Point", "coordinates": [-44.43324292637936, -8.864977982800424]}}, {"type": "Feature", "properties": {"norad_id": 66469, "name": "STARLINK-35451", "group": "last-30-days", "lat": -12.706527400066902, "lon": -40.08109785991592, "alt_km": 387.9081590827982, "timestamp": "2025-12-03T08:58:44.777269+00:00", "meta": {"OBJECT_NAME": "STARLINK-35451", "OBJECT_ID": "2025-262P", "EPOCH": "2025-12-03T04:00:01.998720", "MEAN_MOTION": 15.61263135, "ECCENTRICITY": 0.0001386, "INCLINATION": 42.9996, "RA_OF_ASC_NODE": 127.1481, "ARG_OF_PERICENTER": 280.0929, "MEAN_ANOMALY": 191.7037, "EPHEMERIS_TYPE": 0, "CLASSIFICATION_TYPE": "U", "NORAD_CAT_ID": 66469, "ELEMENT_SET_NO": 999, "REV_AT_EPOCH": 410, "BSTAR": -0.028109, "MEAN_MOTION_DOT": -0.02175662, "MEAN_MOTION_DDOT": 0}, "tle": {"line1": "1 66469U 25262P   25337.16668980 -.02175662  00000+0 -28109-1 0  9993", "line2": "2 66469  42.9996 127.1481 0001386 280.0929 191.7037 15.61263135  4100"}}, "geometry": {"type": "Point", "coordinates": [-40.08109785991592, -12.706527400066902]}}, {"type": "Feature", "properties": {"norad_id": 66470, "name": "STARLINK-35655", "group": "last-30-days", "lat": -10.150306965153426, "lon": -42.99649895218456, "alt_km": 387.7739697418565, "timestamp": "2025-12-03T08:58:44.777281+00:00", "meta": {"OBJECT_NAME": "STARLINK-35655", "OBJECT_ID": "2025-262Q", "EPOCH": "2025-12-03T04:00:01.998720", "MEAN_MOTION": 15.61252229, "ECCENTRICITY": 0.0001536, "INCLINATION": 42.9997, "RA_OF_ASC_NODE": 127.1587, "ARG_OF_PERICENTER": 283.1406, "MEAN_ANOMALY": 184.8193, "EPHEMERIS_TYPE": 0, "CLASSIFICATION_TYPE": "U", "NORAD_CAT_ID": 66470, "ELEMENT_SET_NO": 999, "REV_AT_EPOCH": 410, "BSTAR": -0.027834, "MEAN_MOTION_DOT": -0.02156014, "MEAN_MOTION_DDOT": 0}, "tle": {"line1": "1 66470U 25262Q   25337.16668980 -.02156014  00000+0 -27834-1 0  9999", "line2": "2 66470  42.9997 127.1587 0001536 283.1406 184.8193 15.61252229  4109"}}, "geometry": {"type": "Point", "coordinates": [-42.99649895218456, -10.150306965153426]}}, {"type": "Feature", "properties": {"norad_id": 66471, "name": "STARLINK-35569", "group": "last-30-days", "lat": -11.433592236349394, "lon": -41.54336923295441, "alt_km": 387.79702891272154, "timestamp": "2025-12-03T08:58:44.777294+00:00", "meta": {"OBJECT_NAME": "STARLINK-35569", "OBJECT_ID": "2025-262R", "EPOCH": "2025-12-03T04:00:01.998720", "MEAN_MOTION": 15.61260212, "ECCENTRICITY": 0.0001431, "INCLINATION": 42.9995, "RA_OF_ASC_NODE": 127.1536, "ARG_OF_PERICENTER": 279.4566, "MEAN_ANOMALY": 190.4227, "EPHEMERIS_TYPE": 0, "CLASSIFICATION_TYPE": "U", "NORAD_CAT_ID": 66471, "ELEMENT_SET_NO": 999, "REV_AT_EPOCH": 410, "BSTAR": -0.028045, "MEAN_MOTION_DOT": -0.02171045, "MEAN_MOTION_DDOT": 0}, "tle": {"line1": "1 66471U 25262R   25337.16668980 -.02171045  00000+0 -28045-1 0  9996", "line2": "2 66471  42.9995 127.1536 0001431 279.4566 190.4227 15.61260212  4103"}}, "geometry": {"type": "Point", "coordinates": [-41.54336923295441, -11.433592236349394]}}, {"type": "Feature", "properties": {"norad_id": 66472, "name": "STARLINK-35567", "group": "last-30-days", "lat": -13.967720397748137, "lon": -38.60738044601065, "alt_km": 388.1112300560817, "timestamp": "2025-12-03T08:58:44.777305+00:00", "meta": {"OBJECT_NAME": "STARLINK-35567", "OBJECT_ID": "2025-262S", "EPOCH": "2025-12-03T04:00:01.998720", "MEAN_MOTION": 15.61255778, "ECCENTRICITY": 0.0001502, "INCLINATION": 42.9994, "RA_OF_ASC_NODE": 127.1434, "ARG_OF_PERICENTER": 285.4545, "MEAN_ANOMALY": 188.2611, "EPHEMERIS_TYPE": 0, "CLASSIFICATION_TYPE": "U", "NORAD_CAT_ID": 66472, "ELEMENT_SET_NO": 999, "REV_AT_EPOCH": 410, "BSTAR": -0.027977, "MEAN_MOTION_DOT": -0.02166131, "MEAN_MOTION_DDOT": 0}, "tle": {"line1": "1 66472U 25262S   25337.16668980 -.02166131  00000+0 -27977-1 0  9990", "line2": "2 66472  42.9994 127.1434 0001502 285.4545 188.2611 15.61255778  4106"}}, "geometry": {"type": "Point", "coordinates": [-38.60738044601065, -13.967720397748137]}}, {"type": "Feature", "properties": {"norad_id": 66473, "name": "STARLINK-35568", "group": "last-30-days", "lat": -15.219958545684223, "lon": -37.11731398340861, "alt_km": 388.07227872533895, "timestamp": "2025-12-03T08:58:44.777315+00:00", "meta": {"OBJECT_NAME": "STARLINK-35568", "OBJECT_ID": "2025-262T", "EPOCH": "2025-12-03T04:00:01.998720", "MEAN_MOTION": 15.6125281, "ECCENTRICITY": 0.0001428, "INCLINATION": 42.9995, "RA_OF_ASC_NODE": 127.1389, "ARG_OF_PERICENTER": 279.4037, "MEAN_ANOMALY": 196.2252, "EPHEMERIS_TYPE": 0, "CLASSIFICATION_TYPE": "U", "NORAD_CAT_ID": 66473, "ELEMENT_SET_NO": 999, "REV_AT_EPOCH": 410, "BSTAR": -0.027848, "MEAN_MOTION_DOT": -0.02156992, "MEAN_MOTION_DDOT": 0}, "tle": {"line1": "1 66473U 25262T   25337.16668980 -.02156992  00000+0 -27848-1 0  9992", "line2": "2 66473  42.9995 127.1389 0001428 279.4037 196.2252 15.61252810  4107"}}, "geometry": {"type": "Point", "coordinates": [-37.11731398340861, -15.219958545684223]}}, {"type": "Feature", "properties": {"norad_id": 66474, "name": "STARLINK-35620", "group": "last-30-days", "lat": -16.46926220125968, "lon": -35.60151563599292, "alt_km": 388.0760195944531, "timestamp": "2025-12-03T08:58:44.777328+00:00", "meta": {"OBJECT_NAME": "STARLINK-35620", "OBJECT_ID": "2025-262U", "EPOCH": "2025-12-03T04:00:01.998720", "MEAN_MOTION": 15.61242566, "ECCENTRICITY": 0.0001579, "INCLINATION": 42.9994, "RA_OF_ASC_NODE": 127.1335, "ARG_OF_PERICENTER": 275.6309, "MEAN_ANOMALY": 201.9318, "EPHEMERIS_TYPE": 0, "CLASSIFICATION_TYPE": "U", "NORAD_CAT_ID": 66474, "ELEMENT_SET_NO": 999, "REV_AT_EPOCH": 410, "BSTAR": -0.027844, "MEAN_MOTION_DOT": -0.02156008, "MEAN_MOTION_DDOT": 0}, "tle": {"line1": "1 66474U 25262U   25337.16668980 -.02156008  00000+0 -27844-1 0  9997", "line2": "2 66474  42.9994 127.1335 0001579 275.6309 201.9318 15.61242566  4109"}}, "geometry": {"type": "Point", "coordinates": [-35.60151563599292, -16.46926220125968]}}, {"type": "Feature", "properties": {"norad_id": 66475, "name": "STARLINK-35538", "group": "last-30-days", "lat": -17.69783928676508, "lon": -34.0765864428584, "alt_km": 388.23404789984306, "timestamp": "2025-12-03T08:58:44.777338+00:00", "meta": {"OBJECT_NAME": "STARLINK-35538", "OBJECT_ID": "2025-262V", "EPOCH": "2025-12-03T04:00:01.998720", "MEAN_MOTION": 15.61258011, "ECCENTRICITY": 0.0001559, "INCLINATION": 42.9993, "RA_OF_ASC_NODE": 127.1297, "ARG_OF_PERICENTER": 280.4674, "MEAN_ANOMALY": 198.9965, "EPHEMERIS_TYPE": 0, "CLASSIFICATION_TYPE": "U", "NORAD_CAT_ID": 66475, "ELEMENT_SET_NO": 999, "REV_AT_EPOCH": 410, "BSTAR": -0.028015, "MEAN_MOTION_DOT": -0.02168929, "MEAN_MOTION_DDOT": 0}, "tle": {"line1": "1 66475U 25262V   25337.16668980 -.02168929  00000+0 -28015-1 0  9994", "line2": "2 66475  42.9993 127.1297 0001559 280.4674 198.9965 15.61258011  4108"}}, "geometry": {"type": "Point", "coordinates": [-34.0765864428584, -17.69783928676508]}}, {"type": "Feature", "properties": {"norad_id": 66476, "name": "STARLINK-35372", "group": "last-30-days", "lat": -18.91882123424533, "lon": -32.52655287835832, "alt_km": 388.27372000866217, "timestamp": "2025-12-03T08:58:44.777348+00:00", "meta": {"OBJECT_NAME": "STARLINK-35372", "OBJECT_ID": "2025-262W", "EPOCH": "2025-12-03T04:00:01.998720", "MEAN_MOTION": 15.61260613, "ECCENTRICITY": 0.0001383, "INCLINATION": 42.9995, "RA_OF_ASC_NODE": 127.1246, "ARG_OF_PERICENTER": 277.6825, "MEAN_ANOMALY": 203.6937, "EPHEMERIS_TYPE": 0, "CLASSIFICATION_TYPE": "U", "NORAD_CAT_ID": 66476, "ELEMENT_SET_NO": 999, "REV_AT_EPOCH": 399, "BSTAR": -0.027983, "MEAN_MOTION_DOT": -0.02166828, "MEAN_MOTION_DDOT": 0}, "tle": {"line1": "1 66476U 25262W   25337.16668980 -.02166828  00000+0 -27983-1 0  9994", "line2": "2 66476  42.9995 127.1246 0001383 277.6825 203.6937 15.61260613  3996"}}, "geometry": {"type": "Point", "coordinates": [-32.52655287835832, -18.91882123424533]}}, {"type": "Feature", "properties": {"norad_id": 66477, "name": "STARLINK-35354", "group": "last-30-days", "lat": -21.322332642774555, "lon": -29.354087321829358, "alt_km": 388.523629214259, "timestamp": "2025-12-03T08:58:44.777358+00:00", "meta": {"OBJECT_NAME": "STARLINK-35354", "OBJECT_ID": "2025-262X", "EPOCH": "2025-12-03T04:00:01.998720", "MEAN_MOTION": 15.61258803, "ECCENTRICITY": 0.0001362, "INCLINATION": 42.9996, "RA_OF_ASC_NODE": 127.1138, "ARG_OF_PERICENTER": 282.8113, "MEAN_ANOMALY": 202.4045, "EPHEMERIS_TYPE": 0, "CLASSIFICATION_TYPE": "U", "NORAD_CAT_ID": 66477, "ELEMENT_SET_NO": 999, "REV_AT_EPOCH": 410, "BSTAR": -0.028014, "MEAN_MOTION_DOT": -0.02168791, "MEAN_MOTION_DDOT": 0}, "tle": {"line1": "1 66477U 25262X   25337.16668980 -.02168791  00000+0 -28014-1 0  9992", "line2": "2 66477  42.9996 127.1138 0001362 282.8113 202.4045 15.61258803  4102"}}, "geometry": {"type": "Point", "coordinates": [-29.354087321829358, -21.322332642774555]}}]}